H1 CPF  1  HTS 2022  4  5 12  5951 larets           NONE
H2  0304206 5557    27944 2022 04 05  0  0  0 2022 04 10  0  0  0   180 1 1  0 0 0
H5  0.0560 
H9 
10 0 59675  10440.00000  0   -6371240.764     984953.771    2855545.516
10 0 59675  10620.00000  0   -6739169.096    1345498.185    1587911.985
10 0 59675  10800.00000  0   -6851819.397    1663163.848     261797.027
10 0 59675  10980.00000  0   -6706609.847    1919644.047   -1073961.972
10 0 59675  11160.00000  0   -6310949.435    2098978.674   -2370258.123
10 0 59675  11340.00000  0   -5681843.810    2188395.159   -3579585.327
10 0 59675  11520.00000  0   -4845096.633    2179002.133   -4657822.942
10 0 59675  11700.00000  0   -3834161.033    2066298.486   -5565846.237
10 0 59675  11880.00000  0   -2688719.452    1850481.303   -6270902.929
10 0 59675  12060.00000  0   -1453070.827    1536545.476   -6747723.452
10 0 59675  12240.00000  0    -174393.490    1134174.805   -6979341.562
10 0 59675  12420.00000  0    1099039.387     657434.705   -6957618.039
10 0 59675  12600.00000  0    2319640.340     124281.090   -6683481.698
10 0 59675  12780.00000  0    3442242.366    -444104.224   -6166879.891
10 0 59675  12960.00000  0    4425732.844   -1024129.852   -5426440.223
10 0 59675  13140.00000  0    5234542.364   -1590740.225   -4488853.929
10 0 59675  13320.00000  0    5839948.358   -2118463.415   -3387984.315
10 0 59675  13500.00000  0    6221138.887   -2582521.093   -2163707.271
10 0 59675  13680.00000  0    6365985.896   -2959954.445    -860509.694
10 0 59675  13860.00000  0    6271484.090   -3230712.445     474110.872
10 0 59675  14040.00000  0    5943827.423   -3378647.922    1791388.173
10 0 59675  14220.00000  0    5398108.266   -3392367.160    3043103.235
10 0 59675  14400.00000  0    4657643.966   -3265883.453    4183388.255
10 0 59675  14580.00000  0    3752973.259   -2999039.502    5170435.799
10 0 59675  14760.00000  0    2720572.634   -2597682.108    5968047.621
10 0 59675  14940.00000  0    1601352.926   -2073575.798    6546959.158
10 0 59675  15120.00000  0     439012.693   -1444063.767    6885896.826
10 0 59675  15300.00000  0    -721684.416    -731490.265    6972341.453
10 0 59675  15480.00000  0   -1836640.596      37596.035    6802981.190
10 0 59675  15660.00000  0   -2864105.410     833431.309    6383847.965
10 0 59675  15840.00000  0   -3766255.530    1624188.437    5730131.992
10 0 59675  16020.00000  0   -4510621.360    2377253.313    4865672.603
10 0 59675  16200.00000  0   -5071308.991    3060582.694    3822126.593
10 0 59675  16380.00000  0   -5429959.059    3644086.361    2637825.791
10 0 59675  16560.00000  0   -5576396.988    4100970.319    1356362.656
10 0 59675  16740.00000  0   -5508940.591    4408975.670      24947.382
10 0 59675  16920.00000  0   -5234338.996    4551439.941   -1307395.112
10 0 59675  17100.00000  0   -4767348.145    4518125.917   -2591703.483
10 0 59675  17280.00000  0   -4129960.927    4305768.924   -3780946.663
10 0 59675  17460.00000  0   -3350341.523    3918315.035   -4831780.144
10 0 59675  17640.00000  0   -2461535.194    3366851.754   -5706114.308
10 0 59675  17820.00000  0   -1500032.645    2669249.186   -6372445.377
10 0 59675  18000.00000  0    -504252.852    1849533.490   -6806918.658
10 0 59675  18180.00000  0     486987.202     937025.964   -6994096.848
10 0 59675  18360.00000  0    1435956.604     -34711.584   -6927436.613
10 0 59675  18540.00000  0    2307410.613   -1029094.315   -6609475.533
10 0 59675  18720.00000  0    3069862.854   -2007859.468   -6051727.146
10 0 59675  18900.00000  0    3696698.592   -2932499.213   -5274296.287
10 0 59675  19080.00000  0    4167103.065   -3765750.040   -4305216.014
10 0 59675  19260.00000  0    4466766.039   -4473084.745   -3179501.531
10 0 59675  19440.00000  0    4588338.482   -5024146.910   -1937948.825
10 0 59675  19620.00000  0    4531620.340   -5394072.098    -625697.522
10 0 59675  19800.00000  0    4303455.808   -5564625.610     709401.281
10 0 59675  19980.00000  0    3917335.558   -5525091.299    2018547.798
10 0 59675  20160.00000  0    3392720.073   -5272859.250    3253813.386
10 0 59675  20340.00000  0    2754115.277   -4813679.137    4369931.190
10 0 59675  20520.00000  0    2029952.330   -4161566.187    5325981.951
10 0 59675  20700.00000  0    1251328.353   -3338364.017    6086905.907
10 0 59675  20880.00000  0     450667.439   -2372986.186    6624783.581
10 0 59675  21060.00000  0    -339634.829   -1300374.919    6919839.646
10 0 59675  21240.00000  0   -1088522.599    -160222.634    6961152.478
10 0 59675  21420.00000  0   -1767502.275    1004504.494    6747056.284
10 0 59675  21600.00000  0   -2351735.548    2149190.656    6285220.771
10 0 59675  21780.00000  0   -2820964.831    3229288.227    5592406.119
10 0 59675  21960.00000  0   -3160239.448    4202074.121    4693895.462
10 0 59675  22140.00000  0   -3360417.595    5028381.735    3622609.062
10 0 59675  22320.00000  0   -3418417.552    5674236.096    2417913.555
10 0 59675  22500.00000  0   -3337201.645    6112309.566    1124159.941
10 0 59675  22680.00000  0   -3125492.171    6323121.715    -210990.666
10 0 59675  22860.00000  0   -2797232.223    6295923.110   -1538387.174
10 0 59675  23040.00000  0   -2370817.303    6029203.143   -2809277.670
10 0 59675  23220.00000  0   -1868135.169    5530788.139   -3977161.178
10 0 59675  23400.00000  0   -1313481.711    4817548.061   -4999509.768
10 0 59675  23580.00000  0    -732414.952    3914738.771   -5839298.975
10 0 59675  23760.00000  0    -150602.416    2855027.533   -6466297.909
10 0 59675  23940.00000  0     407287.476    1677247.136   -6858083.204
10 0 59675  24120.00000  0     918599.920     424944.343   -7000756.767
10 0 59675  24300.00000  0    1363582.033    -855223.090   -6889371.578
10 0 59675  24480.00000  0    1726118.608   -2115192.307   -6528062.565
10 0 59675  24660.00000  0    1994296.125   -3307250.436   -5929892.027
10 0 59675  24840.00000  0    2160785.222   -4385801.411   -5116419.661
10 0 59675  25020.00000  0    2223028.608   -5309096.541   -4116985.674
10 0 59675  25200.00000  0    2183226.733   -6040858.306   -2967720.137
10 0 59675  25380.00000  0    2048120.063   -6551745.119   -1710298.433
10 0 59675  25560.00000  0    1828571.448   -6820585.242    -390465.323
10 0 59675  25740.00000  0    1538966.936   -6835310.211     943625.823
10 0 59675  25920.00000  0    1196459.025   -6593530.312    2243191.019
10 0 59675  26100.00000  0     820089.381   -6102717.852    3460638.700
10 0 59675  26280.00000  0     429834.337   -5379977.488    4551349.870
10 0 59675  26460.00000  0      45623.737   -4451425.209    5475336.074
10 0 59675  26640.00000  0    -313615.734   -3351205.369    6198713.491
10 0 59675  26820.00000  0    -630844.774   -2120190.901    6694936.688
10 0 59675  27000.00000  0    -891685.844    -804434.181    6945749.615
10 0 59675  27180.00000  0   -1085056.448     546568.595    6941844.226
10 0 59675  27360.00000  0   -1203637.893    1881748.989    6683207.431
10 0 59675  27540.00000  0   -1244159.133    3150406.558    6179143.661
10 0 59675  27720.00000  0   -1207487.548    4304153.794    5447972.117
10 0 59675  27900.00000  0   -1098522.353    5298800.334    4516400.169
10 0 59675  28080.00000  0    -925893.809    6096107.065    3418579.739
10 0 59675  28260.00000  0    -701480.253    6665330.054    2194867.742
10 0 59675  28440.00000  0    -439763.889    6984486.818     890324.187
10 0 59675  28620.00000  0    -157048.568    7041261.258    -446998.649
10 0 59675  28800.00000  0     129413.608    6833502.069   -1767894.077
10 0 59675  28980.00000  0     402336.973    6369279.498   -3023885.498
10 0 59675  29160.00000  0     645304.529    5666505.156   -4169054.968
10 0 59675  29340.00000  0     843615.850    4752153.150   -5161739.646
10 0 59675  29520.00000  0     985038.423    3661128.432   -5966027.387
10 0 59675  29700.00000  0    1060425.570    2434851.351   -6552999.989
10 0 59675  29880.00000  0    1064175.567    1119631.788   -6901692.951
10 0 59675  30060.00000  0     994518.681    -235091.073   -6999761.276
10 0 59675  30240.00000  0     853624.874   -1578585.470   -6843852.696
10 0 59675  30420.00000  0     647530.370   -2860680.740   -6439686.515
10 0 59675  30600.00000  0     385889.396   -4033588.388   -5801854.910
10 0 59675  30780.00000  0      81555.047   -5053653.621   -4953340.899
10 0 59675  30960.00000  0    -249995.041   -5882975.987   -3924754.213
10 0 59675  31140.00000  0    -591372.117   -6490847.654   -2753296.431
10 0 59675  31320.00000  0    -924101.500   -6854946.763   -1481471.415
10 0 59675  31500.00000  0   -1229524.477   -6962228.531    -155572.775
10 0 59675  31680.00000  0   -1489733.768   -6809456.971    1176002.871
10 0 59675  31860.00000  0   -1688496.780   -6403342.778    2464546.576
10 0 59675  32040.00000  0   -1812117.459   -5760272.460    3662857.776
10 0 59675  32220.00000  0   -1850187.925   -4905635.692    4727010.602
10 0 59675  32400.00000  0   -1796190.744   -3872790.756    5617984.705
10 0 59675  32580.00000  0   -1647926.207   -2701722.844    6303102.083
10 0 59675  32760.00000  0   -1407739.316   -1437455.419    6757213.331
10 0 59675  32940.00000  0   -1082539.505    -128295.347    6963600.919
10 0 59675  33120.00000  0    -683617.216    1176026.846    6914580.925
10 0 59675  33300.00000  0    -226256.420    2426253.739    6611791.834
10 0 59675  33480.00000  0     270848.903    3575475.046    6066160.321
10 0 59675  33660.00000  0     786351.495    4580913.754    5297540.456
10 0 59675  33840.00000  0    1297155.821    5405564.534    4334029.825
10 0 59675  34020.00000  0    1779438.038    6019618.931    3210971.450
10 0 59675  34200.00000  0    2209740.254    6401617.917    1969669.201
10 0 59675  34380.00000  0    2566086.082    6539269.985     655838.577
10 0 59675  34560.00000  0    2829053.117    6429874.451    -682134.973
10 0 59675  34740.00000  0    2982746.788    6080332.974   -1995044.976
99
